IRIDIUM 7 [-]           
1 24793U 97020B   23283.42206861  .00000993  00000+0  34263-3 0  9991
2 24793  86.3922  74.8065 0002092  84.1157 276.0278 14.34923078383788
IRIDIUM 5 [-]           
1 24795U 97020D   23283.29250125  .00010618  00000+0  10734-2 0  9991
2 24795  86.4006   5.1916 0128934 170.7215 189.6438 14.84825631393832
IRIDIUM 4 [-]           
1 24796U 97020E   23282.89165428  .00000918  00000+0  31066-3 0  9992
2 24796  86.3922  72.3140 0002259  88.6702 271.4753 14.35830845384001
IRIDIUM 914 [-]         
1 24836U 97030A   23283.52173226  .00001273  00000+0  40129-3 0  9999
2 24836  86.3884  82.4559 0004007  89.2173 270.9485 14.39631361380616
IRIDIUM 16 [-]          
1 24841U 97030F   23282.92079096  .00001045  00000+0  34250-3 0  9993
2 24841  86.3979 104.0567 0000775   8.1704 351.9506 14.37522128378434
IRIDIUM 911 [-]         
1 24842U 97030G   23282.88467568  .00001339  00000+0  36993-3 0  9996
2 24842  86.4406 103.4056 0014288 359.5701   0.5486 14.46041321385973
IRIDIUM 17 [-]          
1 24870U 97034B   23283.56712229  .00000868  00000+0  28862-3 0  9996
2 24870  86.3947 133.4552 0001230 140.5345 219.5941 14.36622741375160
IRIDIUM 920 [-]         
1 24871U 97034C   23283.52812852  .00000947  00000+0  29242-3 0  9997
2 24871  86.3928 114.1386 0010202 320.2065  39.8385 14.40336793378180
